[Satellite]
VERSION=1.1
NAME=IDEFIX & ARIANE 42P R/B
NICKNAME=IDEFIX & ARIANE 42P R/B
TLE1=1 27422U 02021B   20158.18470065 -.00000017  00000-0  97887-5 0  9992
TLE2=2 27422  98.3505 119.7195 0010914 264.4236  95.5702 14.29289068941667
STATUS=0
